{
  "type": "FeatureCollection",
  "features": [
    {
      "type": "Feature",
      "properties": {
        "norad_id": 39766,
        "name": "ALOS-2",
        "group": "resource",
        "lat": 39.421469042042425,
        "lon": -95.94451065334657,
        "alt_km": 627.1953931615162,
        "timestamp": "2025-12-08T13:49:31.450354+00:00",
        "meta_object_name": "ALOS-2",
        "meta_object_id": "2014-029A",
        "meta_epoch": "2025-12-08T06:42:06.784416",
        "meta_mean_motion": 14.7946434,
        "meta_eccentricity": 0.00014613,
        "meta_inclination": 97.9231,
        "meta_ra_of_asc_node": 77.1892,
        "meta_arg_of_pericenter": 104.0021,
        "meta_mean_anomaly": 256.1354,
        "meta_ephemeris_type": 0,
        "meta_classification_type": "U",
        "meta_norad_cat_id": 39766,
        "meta_element_set_no": 999,
        "meta_rev_at_epoch": 62335,
        "meta_bstar": 0.0004711097,
        "meta_mean_motion_dot": 3.468e-05,
        "meta_mean_motion_ddot": 0,
        "tle_line1": "1 39766U 14029A   25342.27924519  .00003468  00000+0  47111-3 0  9999",
        "tle_line2": "2 39766  97.9231  77.1892 0001461 104.0021 256.1354 14.79464340623355"
      },
      "geometry": {
        "type": "Point",
        "coordinates": [
          -95.94451065334657,
          39.421469042042425
        ]
      }
    },
    {
      "type": "Feature",
      "properties": {
        "norad_id": 40010,
        "name": "KAZEOSAT 2",
        "group": "resource",
        "lat": -34.68481143453216,
        "lon": -167.62711319524766,
        "alt_km": 620.5535955708028,
        "timestamp": "2025-12-08T13:49:31.450365+00:00",
        "meta_object_name": "KAZEOSAT 2",
        "meta_object_id": "2014-033A",
        "meta_epoch": "2025-12-08T05:53:52.808640",
        "meta_mean_motion": 14.85157346,
        "meta_eccentricity": 0.00074725,
        "meta_inclination": 97.5514,
        "meta_ra_of_asc_node": 186.7924,
        "meta_arg_of_pericenter": 223.0044,
        "meta_mean_anomaly": 137.0588,
        "meta_ephemeris_type": 0,
        "meta_classification_type": "U",
        "meta_norad_cat_id": 40010,
        "meta_element_set_no": 999,
        "meta_rev_at_epoch": 62061,
        "meta_bstar": 0.0001743159,
        "meta_mean_motion_dot": 1.443e-05,
        "meta_mean_motion_ddot": 0,
        "tle_line1": "1 40010U 14033A   25342.24575010  .00001443  00000+0  17432-3 0  9997",
        "tle_line2": "2 40010  97.5514 186.7924 0007472 223.0044 137.0588 14.85157346620611"
      },
      "geometry": {
        "type": "Point",
        "coordinates": [
          -167.62711319524766,
          -34.68481143453216
        ]
      }
    },
    {
      "type": "Feature",
      "properties": {
        "norad_id": 40011,
        "name": "HODOYOSHI-4",
        "group": "resource",
        "lat": 18.02623199870914,
        "lon": 169.19444164602214,
        "alt_km": 621.6336656920248,
        "timestamp": "2025-12-08T13:49:31.450376+00:00",
        "meta_object_name": "HODOYOSHI-4",
        "meta_object_id": "2014-033B",
        "meta_epoch": "2025-12-08T05:40:15.852576",
        "meta_mean_motion": 14.87456943,
        "meta_eccentricity": 0.00228918,
        "meta_inclination": 97.5416,
        "meta_ra_of_asc_node": 171.3425,
        "meta_arg_of_pericenter": 215.9174,
        "meta_mean_anomaly": 144.0505,
        "meta_ephemeris_type": 0,
        "meta_classification_type": "U",
        "meta_norad_cat_id": 40011,
        "meta_element_set_no": 999,
        "meta_rev_at_epoch": 62041,
        "meta_bstar": 0.00032015229,
        "meta_mean_motion_dot": 2.861e-05,
        "meta_mean_motion_ddot": 0,
        "tle_line1": "1 40011U 14033B   25342.23629459  .00002861  00000+0  32015-3 0  9993",
        "tle_line2": "2 40011  97.5416 171.3425 0022891 215.9174 144.0505 14.87456943620417"
      },
      "geometry": {
        "type": "Point",
        "coordinates": [
          169.19444164602214,
          18.02623199870914
        ]
      }
    },
    {
      "type": "Feature",
      "properties": {
        "norad_id": 40013,
        "name": "DEIMOS-2",
        "group": "resource",
        "lat": 81.7171523507076,
        "lon": 105.15158785420631,
        "alt_km": 580.6208634015684,
        "timestamp": "2025-12-08T13:49:31.450387+00:00",
        "meta_object_name": "DEIMOS-2",
        "meta_object_id": "2014-033D",
        "meta_epoch": "2025-12-08T05:21:59.264640",
        "meta_mean_motion": 14.92944737,
        "meta_eccentricity": 9.812e-05,
        "meta_inclination": 97.607,
        "meta_ra_of_asc_node": 218.1727,
        "meta_arg_of_pericenter": 95.2974,
        "meta_mean_anomaly": 264.8358,
        "meta_ephemeris_type": 0,
        "meta_classification_type": "U",
        "meta_norad_cat_id": 40013,
        "meta_element_set_no": 999,
        "meta_rev_at_epoch": 60922,
        "meta_bstar": 0.00037925808,
        "meta_mean_motion_dot": 3.883e-05,
        "meta_mean_motion_ddot": 0,
        "tle_line1": "1 40013U 14033D   25342.22360260  .00003883  00000+0  37926-3 0  9997",
        "tle_line2": "2 40013  97.6070 218.1727 0000981  95.2974 264.8358 14.92944737609226"
      },
      "geometry": {
        "type": "Point",
        "coordinates": [
          105.15158785420631,
          81.7171523507076
        ]
      }
    },
    {
      "type": "Feature",
      "properties": {
        "norad_id": 40015,
        "name": "HODOYOSHI-3",
        "group": "resource",
        "lat": -16.00404207043839,
        "lon": 150.79260463704153,
        "alt_km": 615.8520663100026,
        "timestamp": "2025-12-08T13:49:31.450398+00:00",
        "meta_object_name": "HODOYOSHI-3",
        "meta_object_id": "2014-033F",
        "meta_epoch": "2025-12-08T00:57:31.692960",
        "meta_mean_motion": 14.8478109,
        "meta_eccentricity": 0.00318137,
        "meta_inclination": 97.6198,
        "meta_ra_of_asc_node": 148.0795,
        "meta_arg_of_pericenter": 264.012,
        "meta_mean_anomaly": 95.747,
        "meta_ephemeris_type": 0,
        "meta_classification_type": "U",
        "meta_norad_cat_id": 40015,
        "meta_element_set_no": 999,
        "meta_rev_at_epoch": 61925,
        "meta_bstar": 0.0002930471,
        "meta_mean_motion_dot": 2.456e-05,
        "meta_mean_motion_ddot": 0,
        "tle_line1": "1 40015U 14033F   25342.03995015  .00002456  00000+0  29305-3 0  9997",
        "tle_line2": "2 40015  97.6198 148.0795 0031813 264.0120  95.7470 14.84781090619254"
      },
      "geometry": {
        "type": "Point",
        "coordinates": [
          150.79260463704153,
          -16.00404207043839
        ]
      }
    },
    {
      "type": "Feature",
      "properties": {
        "norad_id": 40053,
        "name": "SPOT 7",
        "group": "resource",
        "lat": 65.0782769208447,
        "lon": 26.918974678724958,
        "alt_km": 683.5100744492984,
        "timestamp": "2025-12-08T13:49:31.450408+00:00",
        "meta_object_name": "SPOT 7",
        "meta_object_id": "2014-034A",
        "meta_epoch": "2025-12-08T06:56:48.508512",
        "meta_mean_motion": 14.60725837,
        "meta_eccentricity": 0.00015312,
        "meta_inclination": 98.0913,
        "meta_ra_of_asc_node": 44.4675,
        "meta_arg_of_pericenter": 94.1496,
        "meta_mean_anomaly": 265.988,
        "meta_ephemeris_type": 0,
        "meta_classification_type": "U",
        "meta_norad_cat_id": 40053,
        "meta_element_set_no": 999,
        "meta_rev_at_epoch": 60926,
        "meta_bstar": 0.00024569324,
        "meta_mean_motion_dot": 1.152e-05,
        "meta_mean_motion_ddot": 0,
        "tle_line1": "1 40053U 14034A   25342.28945033  .00001152  00000+0  24569-3 0  9991",
        "tle_line2": "2 40053  98.0913  44.4675 0001531  94.1496 265.9880 14.60725837609261"
      },
      "geometry": {
        "type": "Point",
        "coordinates": [
          26.918974678724958,
          65.0782769208447
        ]
      }
    },
    {
      "type": "Feature",
      "properties": {
        "norad_id": 40072,
        "name": "SKYSAT-B",
        "group": "resource",
        "lat": -36.27777672690653,
        "lon": -67.74121217011806,
        "alt_km": 616.5274471320654,
        "timestamp": "2025-12-08T13:49:31.450419+00:00",
        "meta_object_name": "SKYSAT-B",
        "meta_object_id": "2014-037D",
        "meta_epoch": "2025-12-08T07:31:54.710688",
        "meta_mean_motion": 14.87301914,
        "meta_eccentricity": 0.00057909,
        "meta_inclination": 98.3606,
        "meta_ra_of_asc_node": 285.7861,
        "meta_arg_of_pericenter": 163.4218,
        "meta_mean_anomaly": 196.7187,
        "meta_ephemeris_type": 0,
        "meta_classification_type": "U",
        "meta_norad_cat_id": 40072,
        "meta_element_set_no": 999,
        "meta_rev_at_epoch": 61758,
        "meta_bstar": 0.00035967897,
        "meta_mean_motion_dot": 3.185e-05,
        "meta_mean_motion_ddot": 0,
        "tle_line1": "1 40072U 14037D   25342.31382767  .00003185  00000+0  35968-3 0  9991",
        "tle_line2": "2 40072  98.3606 285.7861 0005790 163.4218 196.7187 14.87301914617584"
      },
      "geometry": {
        "type": "Point",
        "coordinates": [
          -67.74121217011806,
          -36.27777672690653
        ]
      }
    }
  ]
}